#dP2023  2  8 18  0  0.00000000      96 __u+U ITR00 EXT  IAC
## 2248 324000.00000000   900.00000000 59983 0.7500000000000
+  120   C06C07C08C09C10C11C12C13C14C16C19C20C21C22C23C24C25
+        C26C27C28C29C30C32C33C34C35C36C37C38C39C40C41C42C43
+        C44C45C46E01E02E03E04E05E07E08E09E10E11E12E13E14E15
+        E18E19E21E24E25E26E27E30E31E33E34E36G01G02G03G04G05
+        G06G07G08G09G10G11G12G13G14G15G16G17G18G19G20G21G22
+        G23G24G25G26G27G28G29G30G31G32J02J03J04R01R02R03R04
+        R05R07R08R09R11R12R13R14R15R16R17R18R19R20R21R22R24
+        R25  0  0  0  0  0  0  0  0  0  0  0  0  0  0  0  0
++        10 10  8 10  9 10  7 10 10 10  8  9  8  9  9  9  8
++         7  8  9  9 10 10  9  7  9 10  9  9 11  9  7  9  8
++         7  7 10  8  6  8  8  5  7  8  7  6  8  7  6  6  5
++         7  8  7  6  6  7  7  8  6  8  7  7  6  7  6  9  7
++         7  7  7  8  6  7  7  7  6  6  6  7  7  8  6  8  7
++         7  7  7  7  7  9  8  7  8  7  9  8 12  8  9  7  8
++         8  8  8  8  6  6  7  7  8  8  8  9  9  8  7  7  8
++         8  0  0  0  0  0  0  0  0  0  0  0  0  0  0  0  0
%c M  cc GPS ccc cccc cccc cccc cccc ccccc ccccc ccccc ccccc
%c cc cc ccc ccc cccc cccc cccc cccc ccccc ccccc ccccc ccccc
%f  0.0000000  0.000000000  0.00000000000  0.000000000000000
%f  0.0000000  0.000000000  0.00000000000  0.000000000000000
%i    0    0    0    0      0      0      0      0         0
%i    0    0    0    0      0      0      0      0         0
/* IAC                                ULTRA-RAPID PREDICTION
/* S/V CLOCKS ARE ALIGNED TO GNSS TIME                      
/* G:C1WC2W R:C1PC2P E:C1XC5X C:C2IC6I J:C1CC2S             
/* PCV:IGS20_2239 OL/AL:FES2004  NONE     YN ORB:CoN CLK:CoN
*  2023 02 09  6 30  0.00000000
PC06 -15582.083177  38617.865500   5597.368940   -190.765539
PC07  -2566.154776  32489.225078  26865.832373    140.149801
PC08 -13259.220305  20515.596023 -34393.145966    526.785156
PC09  -9883.526090  38097.201922  14746.922991    601.976744
PC10   3905.917598  35284.132716  23395.439650     15.145743
PC11  16767.043589 -14698.256974 -16701.126746   -130.779038
PC12  14518.666256   5039.973835 -23251.694789    442.673485
PC13  -6994.408476  22358.481248 -34925.596857    203.468301
PC14  16268.203310  -4821.705768  22185.110686    459.623275
PC16 -16281.059564  38490.614562   4381.006808    166.640944
PC19  -8755.124797  13441.203464 -22808.173600   -894.722718
PC20 -20257.466274  -2895.014832 -18946.238608    731.763885
PC21  20384.713129  18785.816454   3323.156696   -911.762017
PC22   8333.274231  22853.118990 -13694.175434   -642.225877
PC23   1392.166988 -16767.429268 -22267.367113   -876.113067
PC24  27363.797725  -2618.386260   4697.189517   -433.690534
PC25  19428.045079 -14813.446043 -13477.854643     69.054565
PC26  19327.349728   8652.157109  18138.086061    -76.192401
PC27 -10937.086079 -14249.755914  21342.291072     94.091095
PC28   1084.420569 -25994.072387  10102.212466     68.430759
PC29 -12771.318265  23288.750169   8545.030798     78.669606
PC30 -17055.893048   5700.927937  21326.458283      1.193943
PC32 -20474.878465 -18680.197546  -3198.162544   -626.773257
PC33   8818.247179 -13420.210811  22828.932200   -874.214805
PC34  17178.292928  -7103.142049 -20831.389992    102.151074
PC35   -986.271050  26377.671557  -8997.919264    683.593725
PC36 -20334.222066  14093.063519  12934.664739   -637.370296
PC37 -17965.643612  -9916.591707 -18919.678142   -825.439030
PC38 -21800.816825  21406.040108 -29068.772529     57.582142
PC39 -18653.592376  37506.648876  -3524.961509     -1.742410
PC40  -5642.470144  28388.244330  30725.717860    -14.642840
PC41  -7805.290159 -22731.864590  14233.837683   -590.706976
PC42  20796.232906   4049.077211  18218.927437   -847.090727
PC43  13255.952273 -22769.920283  -9244.220894      6.278666
PC44  11509.191462  14017.786560 -21209.064422      9.738345
PC45   -993.099861  16592.421839  22409.659220    -58.140648
PC46 -27496.798515   3829.005804  -3066.022450    -32.171599
PE01 -10832.377894 -18489.142201 -20431.024315   -600.377933
PE02  11255.688323  18462.189782  20194.766741     19.712728
PE03   7773.862182  28430.220529   2776.861523   -648.226734
PE04 -16639.054541 -15729.713151 -18754.819447    -54.352886
PE05  -5886.460339  24691.812854 -15221.680026    -97.103342
PE07  15946.320622  -6472.098818  24087.629208    -21.557522
PE08  16535.381455  15856.789437  18747.927691    -33.131422
PE09 -15845.010208   6271.591529 -24201.109654   -829.699890
PE10 -22674.888890   4300.479500  18533.198250   -511.096778
PE11 -24541.970374  13254.161181   9877.695279    811.295319
PE12 -17547.240372  -4664.678388  23375.866579   -415.459306
PE13  24524.582973 -12668.210002 -10695.510270     -0.145677
PE14 -11718.978051 -16084.882413  12444.549669    137.076542
PE15      0.000000      0.000000      0.000000    688.532567
PE18  17197.770250  19958.007173 -19012.059556   -411.920422
PE19  -5954.688617 -28998.151167   -208.453465  -3279.385008
PE21   9293.898432 -14345.180989 -24171.707459   -511.114550
PE24 -26213.270431   1004.574473  13722.939558  -1104.202167
PE25  -9664.954611  14180.480617  24117.957581   -598.999670
PE26  16726.723616 -22715.772861   8981.392803     13.087790
PE27  25767.615254  -1736.327352 -14451.294200   -507.925192
PE30  26591.483029  12238.861659   4297.369183  -1227.913745
PE31 -26913.357312 -11774.868917  -3685.538812   -515.552742
PE33    108.818830 -19396.087588  22372.739696   -452.422783
PE34     91.649653  19307.584870 -22436.198027    -29.163020
PE36 -17310.330203  22547.156774  -8223.808099     -9.739110
PG01  -9933.086521  19706.457640 -14828.597798    214.588513
PG02   5529.670881 -20613.239477  16584.686555   -622.053187
PG03   -437.057395  15581.318346 -21643.094056   -365.194318
PG04   -896.899513  25977.000251  -5164.331029    -31.389945
PG05  16455.262466  -8190.507088  19045.512818   -115.212451
PG06  20116.755267  -1098.185722 -17286.540059    570.203288
PG07   4664.167291  15645.115704  21302.353026    244.326210
PG08  -7840.414470  19721.171929  15664.687559   -107.652942
PG09   7871.780066  24737.488817   5424.525344   -221.568472
PG10 -23993.460409 -11537.370142   2578.130453    -23.951870
PG11  23295.439370 -11166.518904  -6086.653109    -99.436740
PG12   3347.283395 -15162.376654 -21837.705816   -338.154752
PG13  12965.307728 -12999.334913  18944.988748    473.156060
PG14  22424.893892  13596.588240   4625.680199    -31.355025
PG15   5446.617721 -20961.934059  14741.294443     11.866364
PG16 -19279.300768   3915.368435  17763.682835   -520.858416
PG17  12432.550662  16210.577821 -16486.806777    698.851727
PG18  -7378.268923 -13094.452641  21894.786071   -133.135507
PG19  14850.710800   5294.524171 -21642.606897    275.276274
PG20  23958.872916  -2715.329185  10931.157843    451.838514
PG21 -15768.822408  19902.111221  -5564.802527    153.886333
PG22 -15017.016870  -1132.749759 -21451.703271    423.334173
PG23 -17107.883357 -15778.357541  12934.379932      5.404445
PG24  11760.418069 -21362.241593 -10348.414927    -66.061970
PG25  -7654.611646 -17440.699422 -18934.954987    418.554771
PG26 -25643.293956  -3295.270704   6706.923211    241.321390
PG27 -13238.917964   8894.744647  20927.661818    106.713191
PG28 -19284.356508   -479.574683 -18287.766844      4.621320
PG29  -3545.666258 -26122.518711   2817.324823   -585.124037
PG30  16059.879575   6547.220405  20271.642096   -530.892403
PG31 -21608.175522   2165.511514 -15761.218686   -208.731641
PG32 -14634.578473 -12878.029132 -17966.156008   -390.575983
PJ02 -29095.196332  20874.835518  27282.722678     -0.846994
PJ03 -32424.710555  26272.354950  11366.827629      0.146152
PJ04 -21564.715197  23615.264799 -22350.021331     94.297726
PR01  11967.386650  22046.031482  -4656.753626     22.710690
PR02  16241.526726  14030.211981  13777.659808    -23.311127
PR03  11263.562437  -2322.431610  22809.944981     72.143702
PR04     67.333716 -16857.371264  19180.138148    175.067856
PR05 -11039.258345 -22446.334564   5081.739041    107.443040
PR07 -10874.248992   2959.739221 -22845.806290     49.547892
PR08     97.372380  16998.762228 -18945.343609    -69.398044
PR09 -23311.700959  -3338.449635  -9696.619833    103.097447
PR11 -11848.348553  10209.173310  20151.523029     -2.545580
PR12   8916.041513  10026.070099  21707.354050     24.876053
PR13  22462.937023   4200.802745  11304.536776    -31.845683
PR14  23878.016957  -4855.101774  -7563.842464     24.318329
PR15  10834.561430 -10387.918204 -20612.113777     91.185701
PR16  -8614.896891  -9878.887522 -21875.376481     11.037148
PR17  15184.690097 -13934.684387 -14996.346535    603.248957
PR18  11913.936662 -22574.641114    841.491198     65.886719
PR19   3884.158877 -20079.373909  15250.473319   -221.262052
PR20  -9605.647366  -4040.394333  23292.747701    -87.392470
PR21 -15266.446631  15205.852772  13672.004514   -371.945721
PR22 -12350.185888  22247.835802  -1611.966812     70.204929
PR24  10484.442183   3275.930516 -23000.868869    145.477485
PR25 -16005.922152  12850.109451  15162.850469     54.553097
EOF
